start=new Date('2023-01-05T00:00:00.000Z').valueOf();
sats=[{"REF_FRAME":"TEME","RA_OF_ASC_NODE":"225.7604","REV_AT_EPOCH":"14396","COUNTRY_CODE":"US","SITE":"AFETR","TLE_LINE2":"2 45682  53.0539 225.7604 0001359 105.5047 254.6092 15.06398977143964","GP_ID":"222156785","CENTER_NAME":"EARTH","OBJECT_ID":"2020-035AB","PERIAPSIS":"546.276","MEAN_MOTION":"15.06398977","FILE":"3731823","MEAN_MOTION_DDOT":"0.0000000000000","LAUNCH_DATE":"2020-06-04","MEAN_ELEMENT_THEORY":"SGP4","INCLINATION":"53.0539","EPOCH":"2023-01-04T07:31:01.535808","TIME_SYSTEM":"UTC","OBJECT_TYPE":"PAYLOAD","SEMIMAJOR_AXIS":"6925.352","ARG_OF_PERICENTER":"105.5047","OBJECT_NAME":"STARLINK-1397","ECCENTRICITY":"0.00013590","RCS_SIZE":"LARGE","APOAPSIS":"548.158","TLE_LINE1":"1 45682U 20035AB  23004.31321222  .00004318  00000-0  30860-3 0  9996","ELEMENT_SET_NO":"999","NORAD_CAT_ID":"45682","DECAY_DATE":null,"CLASSIFICATION_TYPE":"U","PERIOD":"95.592","MEAN_MOTION_DOT":"0.00004318","BSTAR":"0.00030860000000","EPHEMERIS_TYPE":"0","MEAN_ANOMALY":"254.6092"},{"NORAD_CAT_ID":"45683","ELEMENT_SET_NO":"999","CLASSIFICATION_TYPE":"U","DECAY_DATE":null,"PERIOD":"95.592","MEAN_MOTION_DOT":"-0.00000256","BSTAR":"0.00000170000000","EPHEMERIS_TYPE":"0","MEAN_ANOMALY":"285.3395","OBJECT_TYPE":"PAYLOAD","SEMIMAJOR_AXIS":"6925.343","ARG_OF_PERICENTER":"74.7750","OBJECT_NAME":"STARLINK-1399","ECCENTRICITY":"0.00014120","RCS_SIZE":"LARGE","TLE_LINE1":"1 45683U 20035AC  23004.02939462 -.00000256  00000-0  17000-5 0  9997","APOAPSIS":"548.186","OBJECT_ID":"2020-035AC","PERIAPSIS":"546.230","MEAN_MOTION":"15.06401787","MEAN_MOTION_DDOT":"0.0000000000000","FILE":"3731823","MEAN_ELEMENT_THEORY":"SGP4","LAUNCH_DATE":"2020-06-04","INCLINATION":"53.0536","EPOCH":"2023-01-04T00:42:19.695168","TIME_SYSTEM":"UTC","RA_OF_ASC_NODE":"227.0226","REV_AT_EPOCH":"14393","REF_FRAME":"TEME","COUNTRY_CODE":"US","TLE_LINE2":"2 45683  53.0536 227.0226 0001412  74.7750 285.3395 15.06401787143933","SITE":"AFETR","CENTER_NAME":"EARTH","GP_ID":"222155540"},{"TIME_SYSTEM":"UTC","LAUNCH_DATE":"2020-06-04","INCLINATION":"53.0521","MEAN_ELEMENT_THEORY":"SGP4","EPOCH":"2023-01-04T08:08:09.982752","FILE":"3731823","MEAN_MOTION_DDOT":"0.0000000000000","MEAN_MOTION":"15.06405934","PERIAPSIS":"546.151","OBJECT_ID":"2020-035AD","GP_ID":"222155790","CENTER_NAME":"EARTH","SITE":"AFETR","TLE_LINE2":"2 45684  53.0521 225.6442 0001508  71.7009 288.4144 15.06405934143981","COUNTRY_CODE":"US","REF_FRAME":"TEME","REV_AT_EPOCH":"14398","RA_OF_ASC_NODE":"225.6442","MEAN_ANOMALY":"288.4144","BSTAR":"0.00025196000000","EPHEMERIS_TYPE":"0","MEAN_MOTION_DOT":"0.00003474","PERIOD":"95.592","DECAY_DATE":null,"CLASSIFICATION_TYPE":"U","ELEMENT_SET_NO":"999","NORAD_CAT_ID":"45684","APOAPSIS":"548.240","TLE_LINE1":"1 45684U 20035AD  23004.33900443  .00003474  00000-0  25196-3 0  9996","RCS_SIZE":"LARGE","ECCENTRICITY":"0.00015080","OBJECT_NAME":"STARLINK-1401","SEMIMAJOR_AXIS":"6925.330","ARG_OF_PERICENTER":"71.7009","OBJECT_TYPE":"PAYLOAD"},{"RCS_SIZE":"LARGE","APOAPSIS":"548.182","TLE_LINE1":"1 45685U 20035AE  23004.33533203  .00003609  00000-0  26107-3 0  9996","OBJECT_TYPE":"PAYLOAD","SEMIMAJOR_AXIS":"6925.358","ARG_OF_PERICENTER":"105.2856","ECCENTRICITY":"0.00013840","OBJECT_NAME":"STARLINK-1402","PERIOD":"95.592","MEAN_MOTION_DOT":"0.00003609","EPHEMERIS_TYPE":"0","BSTAR":"0.00026107000000","MEAN_ANOMALY":"254.8286","ELEMENT_SET_NO":"999","NORAD_CAT_ID":"45685","DECAY_DATE":null,"CLASSIFICATION_TYPE":"U","SITE":"AFETR","TLE_LINE2":"2 45685  53.0520 225.6571 0001384 105.2856 254.8286 15.06396872143983","GP_ID":"222157042","CENTER_NAME":"EARTH","REF_FRAME":"TEME","REV_AT_EPOCH":"14398","RA_OF_ASC_NODE":"225.6571","COUNTRY_CODE":"US","LAUNCH_DATE":"2020-06-04","EPOCH":"2023-01-04T08:02:52.687392","INCLINATION":"53.0520","MEAN_ELEMENT_THEORY":"SGP4","TIME_SYSTEM":"UTC","OBJECT_ID":"2020-035AE","PERIAPSIS":"546.265","MEAN_MOTION":"15.06396872","MEAN_MOTION_DDOT":"0.0000000000000","FILE":"3731823"},{"TLE_LINE1":"1 45686U 20035AF  23004.85874481 -.00001552  00000-0 -85350-4 0  9993","APOAPSIS":"548.497","RCS_SIZE":"LARGE","ECCENTRICITY":"0.00017840","OBJECT_NAME":"STARLINK-1404","OBJECT_TYPE":"PAYLOAD","ARG_OF_PERICENTER":"109.2291","SEMIMAJOR_AXIS":"6925.396","EPHEMERIS_TYPE":"0","BSTAR":"-0.00008535000000","MEAN_ANOMALY":"250.8891","PERIOD":"95.593","MEAN_MOTION_DOT":"-0.00001552","CLASSIFICATION_TYPE":"U","DECAY_DATE":null,"NORAD_CAT_ID":"45686","ELEMENT_SET_NO":"999","CENTER_NAME":"EARTH","GP_ID":"222193282","TLE_LINE2":"2 45686  53.0536 223.3030 0001784 109.2291 250.8891 15.06384472143652","SITE":"AFETR","COUNTRY_CODE":"US","REV_AT_EPOCH":"14365","RA_OF_ASC_NODE":"223.3030","REF_FRAME":"TEME","LAUNCH_DATE":"2020-06-04","EPOCH":"2023-01-04T20:36:35.551584","INCLINATION":"53.0536","MEAN_ELEMENT_THEORY":"SGP4","TIME_SYSTEM":"UTC","MEAN_MOTION":"15.06384472","MEAN_MOTION_DDOT":"0.0000000000000","FILE":"3732031","OBJECT_ID":"2020-035AF","PERIAPSIS":"546.026"},{"TIME_SYSTEM":"UTC","LAUNCH_DATE":"2020-06-04","INCLINATION":"53.0538","MEAN_ELEMENT_THEORY":"SGP4","EPOCH":"2023-01-04T20:29:49.428384","PERIAPSIS":"527.011","OBJECT_ID":"2020-035AH","MEAN_MOTION_DDOT":"0.0000000000000","FILE":"3732031","MEAN_MOTION":"15.12161711","SITE":"AFETR","TLE_LINE2":"2 45688  53.0538 220.5973 0003764 133.6822 226.4482 15.12161711143675","GP_ID":"222193556","CENTER_NAME":"EARTH","REF_FRAME":"TEME","REV_AT_EPOCH":"14367","RA_OF_ASC_NODE":"220.5973","COUNTRY_CODE":"US","MEAN_MOTION_DOT":"0.00014178","PERIOD":"95.228","MEAN_ANOMALY":"226.4482","BSTAR":"0.00082803000000","EPHEMERIS_TYPE":"0","ELEMENT_SET_NO":"999","NORAD_CAT_ID":"45688","DECAY_DATE":null,"CLASSIFICATION_TYPE":"U","RCS_SIZE":"LARGE","APOAPSIS":"532.211","TLE_LINE1":"1 45688U 20035AH  23004.85404431  .00014178  00000-0  82803-3 0  9994","SEMIMAJOR_AXIS":"6907.746","ARG_OF_PERICENTER":"133.6822","OBJECT_TYPE":"PAYLOAD","ECCENTRICITY":"0.00037640","OBJECT_NAME":"STARLINK-1408"},{"CLASSIFICATION_TYPE":"U","DECAY_DATE":null,"NORAD_CAT_ID":"45689","ELEMENT_SET_NO":"999","MEAN_ANOMALY":"257.5702","BSTAR":"0.00027595000000","EPHEMERIS_TYPE":"0","MEAN_MOTION_DOT":"0.00003831","PERIOD":"95.592","OBJECT_NAME":"STARLINK-1413","ECCENTRICITY":"0.00013620","ARG_OF_PERICENTER":"102.5439","SEMIMAJOR_AXIS":"6925.341","OBJECT_TYPE":"PAYLOAD","TLE_LINE1":"1 45689U 20035AJ  23004.34638223  .00003831  00000-0  27595-3 0  9998","APOAPSIS":"548.150","RCS_SIZE":"LARGE","FILE":"3731823","MEAN_MOTION_DDOT":"0.0000000000000","MEAN_MOTION":"15.06402368","PERIAPSIS":"546.263","OBJECT_ID":"2020-035AJ","TIME_SYSTEM":"UTC","LAUNCH_DATE":"2020-06-04","MEAN_ELEMENT_THEORY":"SGP4","INCLINATION":"53.0540","EPOCH":"2023-01-04T08:18:47.424672","COUNTRY_CODE":"US","REV_AT_EPOCH":"14389","RA_OF_ASC_NODE":"225.6080","REF_FRAME":"TEME","CENTER_NAME":"EARTH","GP_ID":"222156291","TLE_LINE2":"2 45689  53.0540 225.6080 0001362 102.5439 257.5702 15.06402368143898","SITE":"AFETR"},{"FILE":"3731823","MEAN_MOTION_DDOT":"0.0000000000000","MEAN_MOTION":"15.06391951","PERIAPSIS":"546.166","OBJECT_ID":"2020-035AK","TIME_SYSTEM":"UTC","INCLINATION":"53.0562","LAUNCH_DATE":"2020-06-04","EPOCH":"2023-01-04T00:30:21.744864","MEAN_ELEMENT_THEORY":"SGP4","COUNTRY_CODE":"US","REF_FRAME":"TEME","RA_OF_ASC_NODE":"227.0611","REV_AT_EPOCH":"14387","GP_ID":"222156542","CENTER_NAME":"EARTH","SITE":"AFETR","TLE_LINE2":"2 45690  53.0562 227.0611 0001548  81.8722 278.2442 15.06391951143874","DECAY_DATE":null,"CLASSIFICATION_TYPE":"U","ELEMENT_SET_NO":"999","NORAD_CAT_ID":"45690","MEAN_ANOMALY":"278.2442","BSTAR":"0.00019664000000","EPHEMERIS_TYPE":"0","MEAN_MOTION_DOT":"0.00002648","PERIOD":"95.593","ECCENTRICITY":"0.00015480","OBJECT_NAME":"STARLINK-1414","SEMIMAJOR_AXIS":"6925.373","ARG_OF_PERICENTER":"81.8722","OBJECT_TYPE":"PAYLOAD","APOAPSIS":"548.310","TLE_LINE1":"1 45690U 20035AK  23004.02108501  .00002648  00000-0  19664-3 0  9999","RCS_SIZE":"LARGE"},{"LAUNCH_DATE":"2020-06-04","EPOCH":"2023-01-04T07:57:34.418304","INCLINATION":"53.0533","MEAN_ELEMENT_THEORY":"SGP4","TIME_SYSTEM":"UTC","OBJECT_ID":"2020-035AL","PERIAPSIS":"546.402","MEAN_MOTION":"15.06386517","MEAN_MOTION_DDOT":"0.0000000000000","FILE":"3731823","SITE":"AFETR","TLE_LINE2":"2 45691  53.0533 225.6735 0001231  93.9967 266.1163 15.06386517143988","GP_ID":"222156786","CENTER_NAME":"EARTH","REF_FRAME":"TEME","REV_AT_EPOCH":"14398","RA_OF_ASC_NODE":"225.6735","COUNTRY_CODE":"US","PERIOD":"95.593","MEAN_MOTION_DOT":"-0.00000340","EPHEMERIS_TYPE":"0","BSTAR":"-0.00000397200000","MEAN_ANOMALY":"266.1163","ELEMENT_SET_NO":"999","NORAD_CAT_ID":"45691","DECAY_DATE":null,"CLASSIFICATION_TYPE":"U","RCS_SIZE":"LARGE","APOAPSIS":"548.107","TLE_LINE1":"1 45691U 20035AL  23004.33164836 -.00000340  00000-0 -39720-5 0  9993","OBJECT_TYPE":"PAYLOAD","ARG_OF_PERICENTER":"93.9967","SEMIMAJOR_AXIS":"6925.390","ECCENTRICITY":"0.00012310","OBJECT_NAME":"STARLINK-1415"},{"LAUNCH_DATE":"2020-06-04","EPOCH":"2023-01-04T20:31:14.898720","INCLINATION":"53.0539","MEAN_ELEMENT_THEORY":"SGP4","TIME_SYSTEM":"UTC","MEAN_MOTION":"15.06410800","MEAN_MOTION_DDOT":"0.0000000000000","FILE":"3732026","OBJECT_ID":"2020-035AM","PERIAPSIS":"546.129","CENTER_NAME":"EARTH","GP_ID":"222193577","TLE_LINE2":"2 45692  53.0539 223.3113 0001518  86.2341 273.8821 15.06410800143652","SITE":"AFETR","COUNTRY_CODE":"US","REV_AT_EPOCH":"14365","RA_OF_ASC_NODE":"223.3113","REF_FRAME":"TEME","BSTAR":"0.00024113000000","EPHEMERIS_TYPE":"0","MEAN_ANOMALY":"273.8821","PERIOD":"95.591","MEAN_MOTION_DOT":"0.00003313","CLASSIFICATION_TYPE":"U","DECAY_DATE":null,"NORAD_CAT_ID":"45692","ELEMENT_SET_NO":"999","TLE_LINE1":"1 45692U 20035AM  23004.85503355  .00003313  00000-0  24113-3 0  9993","APOAPSIS":"548.232","RCS_SIZE":"LARGE","OBJECT_NAME":"STARLINK-1416","ECCENTRICITY":"0.00015180","OBJECT_TYPE":"PAYLOAD","SEMIMAJOR_AXIS":"6925.315","ARG_OF_PERICENTER":"86.2341"}];
